NORAD_CAT_ID,OBJECT_NAME,OBJECT_TYPE,EPOCH,MEAN_MOTION,ECCENTRICITY,INCLINATION,RA_OF_ASC_NODE,ARG_OF_PERICENTER,MEAN_ANOMALY,BSTAR,MEAN_MOTION_DOT,MEAN_MOTION_DDOT,TLE_LINE0,TLE_LINE1,TLE_LINE2,SEMIMAJOR_AXIS,PERIOD,APOGEE,PERIGEE,DECAYED
53729.0,STARLINK-4651,PAYLOAD,2024-07-01 20:47:45,15.08830633,0.0001513,53.2158,138.7724,82.7979,277.3185,0.00020843,3.03e-05,0.0,0 STARLINK-4651,1 53729U 22107AF  24183.86649994  .00003030  00000-0  20843-3 0  9997,2 53729  53.2158 138.7724 0001513  82.7979 277.3185 15.08830633100984,6917.909,95.438,540.821,538.727,0.0
53729.0,STARLINK-4651,PAYLOAD,2024-07-02 14:16:59,15.08839728,0.0001411,53.2152,135.5003,85.6008,274.5146,0.00011102,1.479e-05,0.0,0 STARLINK-4651,1 53729U 22107AF  24184.59513884  .00001479  00000-0  11102-3 0  9999,2 53729  53.2152 135.5003 0001411  85.6008 274.5146 15.08839728101728,6917.881,95.438,540.722,538.77,0.0
53729.0,STARLINK-4651,PAYLOAD,2024-07-03 03:00:04,15.08843924,0.0001329,53.2169,133.1213,91.0876,269.0269,6.3333e-05,7.2e-06,0.0,0 STARLINK-4651,1 53729U 22107AF  24185.12505745  .00000720  00000-0  63333-4 0  9998,2 53729  53.2169 133.1213 0001329  91.0876 269.0269 15.08843924101172,6917.868,95.437,540.653,538.814,0.0
53729.0,STARLINK-4651,PAYLOAD,2024-07-03 14:07:46,15.08847726,0.0001285,53.2152,131.04,92.3411,267.7728,8.4563e-05,1.058e-05,0.0,0 STARLINK-4651,1 53729U 22107AF  24185.58873340  .00001058  00000-0  84563-4 0  9990,2 53729  53.2152 131.0400 0001285  92.3411 267.7728 15.08847726101875,6917.857,95.437,540.611,538.833,0.0
53729.0,STARLINK-4651,PAYLOAD,2024-07-04 02:50:51,15.08841153,0.0001344,53.215,128.6598,98.9827,261.1317,0.00016654,2.364e-05,0.0,0 STARLINK-4651,1 53729U 22107AF  24186.11865449  .00002364  00000-0  16654-3 0  9997,2 53729  53.2150 128.6598 0001344  98.9827 261.1317 15.08841153101951,6917.877,95.437,540.672,538.812,0.0
53729.0,STARLINK-4651,PAYLOAD,2024-07-04 20:20:06,15.08842427,0.00015,53.217,125.3885,104.4199,255.696,3.6914e-06,-2.29e-06,0.0,0 STARLINK-4651,1 53729U 22107AF  24186.84729689 -.00000229  00000-0  36914-5 0  9994,2 53729  53.2170 125.3885 0001500 104.4199 255.6960 15.08842427101435,6917.873,95.437,540.776,538.7,0.0
53729.0,STARLINK-4651,PAYLOAD,2024-07-05 12:13:57,15.08839132,0.0001319,53.216,122.4175,94.3732,265.741,2.7992e-05,1.58e-06,0.0,0 STARLINK-4651,1 53729U 22107AF  24187.50969840  .00000158  00000-0  27992-4 0  9998,2 53729  53.2160 122.4175 0001319  94.3732 265.7410 15.08839132102164,6917.883,95.438,540.661,538.836,0.0
53729.0,STARLINK-4651,PAYLOAD,2024-07-06 02:32:26,15.0884104,0.0001322,53.2165,119.7421,105.7668,254.347,4.9844e-05,5.05e-06,0.0,0 STARLINK-4651,1 53729U 22107AF  24188.10585703  .00000505  00000-0  49844-4 0  9993,2 53729  53.2165 119.7421 0001322 105.7668 254.3470 15.08841040101622,6917.877,95.437,540.657,538.828,0.0
53729.0,STARLINK-4651,PAYLOAD,2024-07-06 12:04:44,15.08840947,0.0001074,53.2151,117.9539,94.8701,265.2414,8.0839e-05,9.99e-06,0.0,0 STARLINK-4651,1 53729U 22107AF  24188.50329508  .00000999  00000-0  80839-4 0  9992,2 53729  53.2151 117.9539 0001074  94.8701 265.2414 15.08840947102318,6917.877,95.437,540.485,539.0,0.0
53729.0,STARLINK-4651,PAYLOAD,2024-07-06 20:01:41,15.08830296,0.000141,53.2179,116.4701,100.8307,259.2844,-3.4889e-05,-8.43e-06,0.0,0 STARLINK-4651,1 53729U 22107AF  24188.83450718 -.00000843  00000-0 -34889-4 0  9990,2 53729  53.2179 116.4701 0001410 100.8307 259.2844 15.08830296101738,6917.91,95.438,540.75,538.8,0.0
53729.0,STARLINK-4651,PAYLOAD,2024-07-07 03:58:36,15.08836406,0.0001452,53.218,114.9851,100.2029,259.9127,1.6344e-05,-2.8e-07,0.0,0 STARLINK-4651,1 53729U 22107AF  24189.16570336 -.00000028  00000-0  16344-4 0  9996,2 53729  53.2180 114.9851 0001452 100.2029 259.9127 15.08836406101785,6917.891,95.438,540.761,538.752,0.0
53729.0,STARLINK-4651,PAYLOAD,2024-07-08 11:46:18,15.08846101,0.0001118,53.2162,109.0339,84.0094,276.1026,8.4954e-05,1.065e-05,0.0,0 STARLINK-4651,1 53729U 22107AF  24190.49049748  .00001065  00000-0  84954-4 0  9995,2 53729  53.2162 109.0339 0001118  84.0094 276.1026 15.08846101101985,6917.862,95.437,540.5,538.953,0.0
53729.0,STARLINK-4651,PAYLOAD,2024-07-08 22:54:02,15.08821881,0.0001319,53.2171,106.9544,87.8897,272.2246,0.00025597,3.786e-05,0.0,0 STARLINK-4651,1 53729U 22107AF  24190.95419134  .00003786  00000-0  25597-3 0  9995,2 53729  53.2171 106.9544 0001319  87.8897 272.2246 15.08821881102681,6917.936,95.439,540.713,538.888,0.0
53729.0,STARLINK-4651,PAYLOAD,2024-07-09 11:37:06,15.08835743,0.0001289,53.2165,104.574,85.1551,274.9589,1.4747e-05,-5.3e-07,0.0,0 STARLINK-4651,1 53729U 22107AF  24191.48410759 -.00000053  00000-0  14747-4 0  9999,2 53729  53.2165 104.5740 0001289  85.1551 274.9589 15.08835743102131,6917.893,95.438,540.65,538.867,0.0
53729.0,STARLINK-4651,PAYLOAD,2024-07-09 22:44:49,15.08836191,0.0001743,53.2192,102.4895,89.786,270.3331,-2.7321e-05,-7.23e-06,0.0,0 STARLINK-4651,1 53729U 22107AF  24191.94779150 -.00000723  00000-0 -27321-4 0  9990,2 53729  53.2192 102.4895 0001743  89.7860 270.3331 15.08836191102837,6917.892,95.438,540.963,538.551,0.0
53729.0,STARLINK-4651,PAYLOAD,2024-07-10 11:27:53,15.08840225,0.0001498,53.2188,100.1119,91.9271,268.1893,5.6754e-06,-1.98e-06,0.0,0 STARLINK-4651,1 53729U 22107AF  24192.47770793 -.00000198  00000-0  56754-5 0  9991,2 53729  53.2188 100.1119 0001498  91.9271 268.1893 15.08840225102914,6917.88,95.438,540.781,538.708,0.0
53729.0,STARLINK-4651,PAYLOAD,2024-07-10 21:00:12,15.08840465,0.0001367,53.2164,98.3304,88.5209,271.594,7.9148e-05,9.72e-06,0.0,0 STARLINK-4651,1 53729U 22107AF  24192.87514565  .00000972  00000-0  79148-4 0  9998,2 53729  53.2164  98.3304 0001367  88.5209 271.5940 15.08840465102344,6917.879,95.438,540.69,538.798,0.0
53729.0,STARLINK-4651,PAYLOAD,2024-07-10 22:35:35,15.08842995,0.0001403,53.2172,98.0334,88.017,272.0983,9.5298e-05,1.229e-05,0.0,0 STARLINK-4651,1 53729U 22107AF  24192.94138394  .00001229  00000-0  95298-4 0  9998,2 53729  53.2172  98.0334 0001403  88.0170 272.0983 15.08842995102989,6917.871,95.437,540.707,538.766,0.0
53729.0,STARLINK-4651,PAYLOAD,2024-07-11 03:21:44,15.08852311,0.0001349,53.2166,97.1396,96.516,263.5986,8.0819e-05,9.99e-06,0.0,0 STARLINK-4651,1 53729U 22107AF  24193.14009794  .00000999  00000-0  80819-4 0  9998,2 53729  53.2166  97.1396 0001349  96.5160 263.5986 15.08852311102387,6917.843,95.437,540.641,538.775,0.0
53729.0,STARLINK-4651,PAYLOAD,2024-07-12 03:12:31,15.08846136,0.000154,53.217,92.6806,80.2611,279.8555,0.00012953,1.774e-05,0.0,0 STARLINK-4651,1 53729U 22107AF  24194.13370211  .00001774  00000-0  12953-3 0  9998,2 53729  53.2170  92.6806 0001540  80.2611 279.8555 15.08846136102539,6917.862,95.437,540.792,538.661,0.0
53729.0,STARLINK-4651,PAYLOAD,2024-07-12 20:41:46,15.08843453,0.0001635,53.2156,89.4069,92.5129,267.6051,2.8686e-05,1.69e-06,0.0,0 STARLINK-4651,1 53729U 22107AF  24194.86234589  .00000169  00000-0  28686-4 0  9993,2 53729  53.2156  89.4069 0001635  92.5129 267.6051 15.08843453102640,6917.87,95.437,540.866,538.604,0.0
53729.0,STARLINK-4651,PAYLOAD,2024-07-12 22:17:09,15.0884431,0.0001744,53.2168,89.1091,103.5271,256.5915,1.1266e-06,-2.7e-06,0.0,0 STARLINK-4651,1 53729U 22107AF  24194.92858533 -.00000270  00000-0  11266-5 0  9992,2 53729  53.2168  89.1091 0001744 103.5271 256.5915 15.08844310103287,6917.867,95.437,540.939,538.526,0.0
53729.0,STARLINK-4651,PAYLOAD,2024-07-13 09:24:51,15.08843444,0.0001216,53.2161,87.0272,87.5489,272.5643,-1.6838e-05,-5.56e-06,0.0,0 STARLINK-4651,1 53729U 22107AF  24195.39226427 -.00000556  00000-0 -16838-4 0  9992,2 53729  53.2161  87.0272 0001216  87.5489 272.5643 15.08843444103355,6917.87,95.437,540.576,538.894,0.0
53729.0,STARLINK-4651,PAYLOAD,2024-07-13 20:32:34,15.0883616,0.000132,53.2174,84.9464,91.0644,269.0499,-5.636e-05,-1.185e-05,0.0,0 STARLINK-4651,1 53729U 22107AF  24195.85595249 -.00001185  00000-0 -56360-4 0  9997,2 53729  53.2174  84.9464 0001320  91.0644 269.0499 15.08836160102791,6917.892,95.438,540.67,538.844,0.0
53729.0,STARLINK-4651,PAYLOAD,2024-07-13 22:07:57,15.08837311,0.0001427,53.2182,84.6487,101.9465,258.1687,-4.7484e-05,-1.044e-05,0.0,0 STARLINK-4651,1 53729U 22107AF  24195.92219044 -.00001044  00000-0 -47484-4 0  9992,2 53729  53.2182  84.6487 0001427 101.9465 258.1687 15.08837311103431,6917.889,95.438,540.741,538.766,0.0
53729.0,STARLINK-4651,PAYLOAD,2024-07-14 02:54:06,15.08846077,0.000131,53.2174,83.7594,100.2987,259.8153,3.9524e-05,3.41e-06,0.0,0 STARLINK-4651,1 53729U 22107AF  24196.12090344  .00000341  00000-0  39524-4 0  9998,2 53729  53.2174  83.7594 0001310 100.2987 259.8153 15.08846077102831,6917.862,95.437,540.633,538.821,0.0
53729.0,STARLINK-4651,PAYLOAD,2024-07-14 09:15:38,15.08842045,0.0001196,53.2168,82.5683,89.2989,270.8141,7.3621e-05,8.84e-06,0.0,0 STARLINK-4651,1 53729U 22107AF  24196.38586434  .00000884  00000-0  73621-4 0  9994,2 53729  53.2168  82.5683 0001196  89.2989 270.8141 15.08842045103506,6917.874,95.437,540.567,538.912,0.0
53729.0,STARLINK-4651,PAYLOAD,2024-07-14 20:23:21,15.08838792,0.0001217,53.2174,80.488,90.3723,269.7408,-2.5184e-05,-6.89e-06,0.0,0 STARLINK-4651,1 53729U 22107AF  24196.84955044 -.00000689  00000-0 -25184-4 0  9998,2 53729  53.2174  80.4880 0001217  90.3723 269.7408 15.08838792102946,6917.884,95.438,540.591,538.907,0.0
53729.0,STARLINK-4651,PAYLOAD,2024-07-14 21:58:44,15.08840176,0.0001234,53.2173,80.1907,90.0121,270.1013,-1.1949e-05,-4.78e-06,0.0,0 STARLINK-4651,1 53729U 22107AF  24196.91578905 -.00000478  00000-0 -11949-4 0  9993,2 53729  53.2173  80.1907 0001234  90.0121 270.1013 15.08840176103588,6917.88,95.438,540.599,538.891,0.0
53729.0,STARLINK-4651,PAYLOAD,2024-07-15 09:06:25,15.08844741,0.000114,53.2174,78.1116,93.2849,266.8273,-1.983e-05,-6.03e-06,0.0,0 STARLINK-4651,1 53729U 22107AF  24197.37946573 -.00000603  00000-0 -19830-4 0  9991,2 53729  53.2174  78.1116 0001140  93.2849 266.8273 15.08844741103656,6917.866,95.437,540.52,538.942,0.0
